$$SOE
2461295.500000000, A.D. 2026-Sep-12 00:00:00.0000, -2.306247352792783E+08, 3.046999664248701E+08, -4.794048343335950E+07,
2461302.500000000, A.D. 2026-Sep-19 00:00:00.0000, -2.399878947961689E+08, 3.003478676738985E+08, -4.804373509573169E+07,
2461309.500000000, A.D. 2026-Sep-26 00:00:00.0000, -2.491509112246236E+08, 2.957452133050979E+08, -4.810684837916125E+07,
2461316.500000000, A.D. 2026-Oct-03 00:00:00.0000, -2.581097095012964E+08, 2.909000876840598E+08, -4.813045964890886E+07,
2461323.500000000, A.D. 2026-Oct-10 00:00:00.0000, -2.668604550815131E+08, 2.858204282388812E+08, -4.811520429216252E+07,
2461330.500000000, A.D. 2026-Oct-17 00:00:00.0000, -2.753995375845801E+08, 2.805140286833344E+08, -4.806171604198606E+07,
2461337.500000000, A.D. 2026-Oct-24 00:00:00.0000, -2.837235555369503E+08, 2.749885425264950E+08, -4.797062641780409E+07,
2461344.500000000, A.D. 2026-Oct-31 00:00:00.0000, -2.918293020482525E+08, 2.692514867389228E+08, -4.784256428565241E+07,
2461351.500000000, A.D. 2026-Nov-07 00:00:00.0000, -2.997137510179371E+08, 2.633102455944634E+08, -4.767815555300041E+07,
2461358.500000000, A.D. 2026-Nov-14 00:00:00.0000, -3.073740436120569E+08, 2.571720755271648E+08, -4.747802293482483E+07,
2461365.500000000, A.D. 2026-Nov-21 00:00:00.0000, -3.148074767671809E+08, 2.508441116445673E+08, -4.724278556125534E+07,
2461372.500000000, A.D. 2026-Nov-28 00:00:00.0000, -3.220114946677861E+08, 2.443333728568917E+08, -4.697305857457939E+07,
2461379.500000000, A.D. 2026-Dec-05 00:00:00.0000, -3.289836795245041E+08, 2.376467649364078E+08, -4.666945309396164E+07,
2461386.500000000, A.D. 2026-Dec-12 00:00:00.0000, -3.357217414404414E+08, 2.307910845892076E+08, -4.633257630190094E+07,
2461393.500000000, A.D. 2026-Dec-19 00:00:00.0000, -3.422235092125790E+08, 2.237730245249547E+08, -4.596303147455015E+07,
2461400.500000000, A.D. 2026-Dec-26 00:00:00.0000, -3.484869221706606E+08, 2.165991786417961E+08, -4.556141800997026E+07,
2461407.500000000, A.D. 2027-Jan-02 00:00:00.0000, -3.545100227377397E+08, 2.092760471221240E+08, -4.512833149085241E+07,
2461414.500000000, A.D. 2027-Jan-09 00:00:00.0000, -3.602909495575095E+08, 2.018100414467381E+08, -4.466436378632148E+07,
2461421.500000000, A.D. 2027-Jan-16 00:00:00.0000, -3.658279311183762E+08, 1.942074893242249E+08, -4.417010319111402E+07,
2461428.500000000, A.D. 2027-Jan-23 00:00:00.0000, -3.711192797982544E+08, 1.864746394848647E+08, -4.364613460611747E+07,
2461435.500000000, A.D. 2027-Jan-30 00:00:00.0000, -3.761633861175565E+08, 1.786176662827583E+08, -4.309303977918956E+07,
2461442.500000000, A.D. 2027-Feb-06 00:00:00.0000, -3.809587127545245E+08, 1.706426744415275E+08, -4.251139761634521E+07,
2461449.500000000, A.D. 2027-Feb-13 00:00:00.0000, -3.855037887635971E+08, 1.625557051618555E+08, -4.190178442080663E+07,
2461456.500000000, A.D. 2027-Feb-20 00:00:00.0000, -3.897972063422716E+08, 1.543627428007010E+08, -4.126477390736599E+07,
2461463.500000000, A.D. 2027-Feb-27 00:00:00.0000, -3.938376187316661E+08, 1.460697189115812E+08, -4.060093738207015E+07,
2461470.500000000, A.D. 2027-Mar-06 00:00:00.0000, -3.976237362100960E+08, 1.376825155700627E+08, -3.991084420485515E+07,
2461477.500000000, A.D. 2027-Mar-13 00:00:00.0000, -4.011543217596352E+08, 1.292069700315943E+08, -3.919506221887232E+07,
2461484.500000000, A.D. 2027-Mar-20 00:00:00.0000, -4.044281875214095E+08, 1.206488798861168E+08, -3.845415811074731E+07,
2461491.500000000, A.D. 2027-Mar-27 00:00:00.0000, -4.074441918262163E+08, 1.120140081625780E+08, -3.768869776525508E+07,
2461498.500000000, A.D. 2027-Apr-03 00:00:00.0000, -4.102012365868623E+08, 1.033080883386934E+08, -3.689924663690303E+07,
2461505.500000000, A.D. 2027-Apr-10 00:00:00.0000, -4.126982649816419E+08, 9.453682928276448E+07, -3.608637014222479E+07,
2461512.500000000, A.D. 2027-Apr-17 00:00:00.0000, -4.149342593988551E+08, 8.570592011787169E+07, -3.525063407615985E+07,
2461519.500000000, A.D. 2027-Apr-24 00:00:00.0000, -4.169082395560545E+08, 7.682103495156525E+07, -3.439260506506082E+07,
2461526.500000000, A.D. 2027-May-01 00:00:00.0000, -4.186192604880298E+08, 6.788783750446717E+07, -3.351285108169125E+07,
2461533.500000000, A.D. 2027-May-08 00:00:00.0000, -4.200664100904413E+08, 5.891198639172383E+07, -3.261194198936267E+07,
2461540.500000000, A.D. 2027-May-15 00:00:00.0000, -4.212488077116451E+08, 4.989914201578663E+07, -3.169044990025703E+07,
2461547.500000000, A.D. 2027-May-22 00:00:00.0000, -4.221656053554246E+08, 4.085497248413635E+07, -3.074894941706556E+07,
2461554.500000000, A.D. 2027-May-29 00:00:00.0000, -4.228159881390980E+08, 3.178515709102413E+07, -2.978801818651786E+07,
2461561.500000000, A.D. 2027-Jun-05 00:00:00.0000, -4.231991731199341E+08, 2.269539050253123E+07, -2.880823758999859E+07,
2461568.500000000, A.D. 2027-Jun-12 00:00:00.0000, -4.233144084962057E+08, 1.359138808169988E+07, -2.781019335199933E+07,
2461575.500000000, A.D. 2027-Jun-19 00:00:00.0000, -4.231609735173502E+08, 4.478891423690999E+06, -2.679447611346785E+07,
2461582.500000000, A.D. 2027-Jun-26 00:00:00.0000, -4.227381788292294E+08, -4.636326153599029E+06, -2.576168201814598E+07,
2461589.500000000, A.D. 2027-Jul-03 00:00:00.0000, -4.220453671279203E+08, -1.374845414791810E+07, -2.471241332418383E+07,
2461596.500000000, A.D. 2027-Jul-10 00:00:00.0000, -4.210819140915596E+08, -2.285163942441853E+07, -2.364727904450420E+07,
2461603.500000000, A.D. 2027-Jul-17 00:00:00.0000, -4.198472295617377E+08, -3.193998081303682E+07, -2.256689562334147E+07,
2461610.500000000, A.D. 2027-Jul-24 00:00:00.0000, -4.183407588274961E+08, -4.100752380775657E+07, -2.147188766948250E+07,
2461617.500000000, A.D. 2027-Jul-31 00:00:00.0000, -4.165619836114867E+08, -5.004825512573986E+07, -2.036288876584660E+07,
2461624.500000000, A.D. 2027-Aug-07 00:00:00.0000, -4.145104229712988E+08, -5.905609596838497E+07, -1.924054224414058E+07,
2461631.500000000, A.D. 2027-Aug-14 00:00:00.0000, -4.121856364314904E+08, -6.802489423241617E+07, -1.810550173582501E+07,
2461638.500000000, A.D. 2027-Aug-21 00:00:00.0000, -4.095872287469176E+08, -7.694841903053422E+07, -1.695843183311968E+07,
2461645.500000000, A.D. 2027-Aug-28 00:00:00.0000, -4.067148528877150E+08, -8.582035631188980E+07, -1.580000907841161E+07,
2461652.500000000, A.D. 2027-Sep-04 00:00:00.0000, -4.035682124470388E+08, -9.463430307245094E+07, -1.463092297078005E+07,
2461659.500000000, A.D. 2027-Sep-11 00:00:00.0000, -4.001470648873823E+08, -1.033837608106609E+08, -1.345187691740700E+07,
2461666.500000000, A.D. 2027-Sep-18 00:00:00.0000, -3.964512255160263E+08, -1.120621288737769E+08, -1.226358919728483E+07,
2461673.500000000, A.D. 2027-Sep-25 00:00:00.0000, -3.924805719864637E+08, -1.206626977679819E+08, -1.106679396658881E+07,
2461680.500000000, A.D. 2027-Oct-02 00:00:00.0000, -3.882350492778168E+08, -1.291786424021823E+08, -9.862242312397383E+06,
2461687.500000000, A.D. 2027-Oct-09 00:00:00.0000, -3.837146751607253E+08, -1.376030152708676E+08, -8.650703359663375E+06,
2461694.500000000, A.D. 2027-Oct-16 00:00:00.0000, -3.789195461236723E+08, -1.459287396340184E+08, -7.432965444640130E+06,
2461701.500000000, A.D. 2027-Oct-23 00:00:00.0000, -3.738498435426633E+08, -1.541486027031399E+08, -6.209837382032685E+06,
2461708.500000000, A.D. 2027-Oct-30 00:00:00.0000, -3.685058397656472E+08, -1.622552482262580E+08, -4.982149812979713E+06,
2461715.500000000, A.D. 2027-Nov-06 00:00:00.0000, -3.628879053227379E+08, -1.702411673480654E+08, -3.750756437205732E+06,
2461722.500000000, A.D. 2027-Nov-13 00:00:00.0000, -3.569965192979627E+08, -1.780986898296009E+08, -2.516535119106196E+06,
2461729.500000000, A.D. 2027-Nov-20 00:00:00.0000, -3.508322800169939E+08, -1.858199778261601E+08, -1.280389314706460E+06,
2461736.500000000, A.D. 2027-Nov-27 00:00:00.0000, -3.443959144946268E+08, -1.933970192741330E+08, -4.324972729074955E+04,
2461743.500000000, A.D. 2027-Dec-04 00:00:00.0000, -3.376882887289395E+08, -2.008216199908092E+08, 1.193924067253664E+06,
2461750.500000000, A.D. 2027-Dec-11 00:00:00.0000, -3.307104194596784E+08, -2.080853954753554E+08, 2.430141995731920E+06,
2461757.500000000, A.D. 2027-Dec-18 00:00:00.0000, -3.234634871896132E+08, -2.151797627821370E+08, 3.664381809263781E+06,
2461764.500000000, A.D. 2027-Dec-25 00:00:00.0000, -3.159488503982887E+08, -2.220959325076118E+08, 4.895587336154729E+06,
2461771.500000000, A.D. 2028-Jan-01 00:00:00.0000, -3.081680609944484E+08, -2.288249009220267E+08, 6.122666663168564E+06,
$$EOE